NORAD_CAT_ID,OBJECT_NAME,OBJECT_TYPE,EPOCH,MEAN_MOTION,ECCENTRICITY,INCLINATION,RA_OF_ASC_NODE,ARG_OF_PERICENTER,MEAN_ANOMALY,BSTAR,MEAN_MOTION_DOT,MEAN_MOTION_DDOT,TLE_LINE0,TLE_LINE1,TLE_LINE2,SEMIMAJOR_AXIS,PERIOD,APOGEE,PERIGEE,DECAYED
49430.0,STARLINK-3138,PAYLOAD,2023-06-15 18:15:58,15.0883994,0.0001348,53.2179,28.9955,87.9021,272.2126,2.9348e-05,1.79e-06,0.0,0 STARLINK-3138,1 49430U 21104Y   23166.76108992  .00000179  00000-0  29348-4 0  9995,2 49430  53.2179  28.9955 0001348  87.9021 272.2126 15.08839940 89051,6917.881,95.438,540.678,538.813,0.0
49430.0,STARLINK-3138,PAYLOAD,2023-06-16 00:37:30,15.08846357,0.0001268,53.2183,27.8046,91.9776,268.1361,8.5308e-05,1.07e-05,0.0,0 STARLINK-3138,1 49430U 21104Y   23167.02604380  .00001070  00000-0  85308-4 0  9996,2 49430  53.2183  27.8046 0001268  91.9776 268.1361 15.08846357 89097,6917.861,95.437,540.603,538.849,0.0
49430.0,STARLINK-3138,PAYLOAD,2023-06-16 02:12:53,15.0885099,0.0001256,53.2185,27.5079,89.8421,270.2716,0.00012489,1.701e-05,0.0,0 STARLINK-3138,1 49430U 21104Y   23167.09228020  .00001701  00000-0  12489-3 0  9996,2 49430  53.2185  27.5079 0001256  89.8421 270.2716 15.08850990 88031,6917.847,95.437,540.581,538.843,0.0
49430.0,STARLINK-3138,PAYLOAD,2023-06-16 18:06:44,15.08843253,0.0001225,53.2192,24.5343,94.5031,265.6101,8.7201e-05,1.1e-05,0.0,0 STARLINK-3138,1 49430U 21104Y   23167.75468436  .00001100  00000-0  87201-4 0  9994,2 49430  53.2192  24.5343 0001225  94.5031 265.6101 15.08843253 88137,6917.87,95.437,540.583,538.888,0.0
49430.0,STARLINK-3138,PAYLOAD,2023-06-17 06:49:49,15.08839174,0.0001375,53.217,22.1497,87.4603,272.6547,3.8177e-05,3.2e-06,0.0,0 STARLINK-3138,1 49430U 21104Y   23168.28460544  .00000320  00000-0  38177-4 0  9996,2 49430  53.2170  22.1497 0001375  87.4603 272.6547 15.08839174 89285,6917.883,95.438,540.699,538.797,0.0
49430.0,STARLINK-3138,PAYLOAD,2023-06-17 14:46:46,15.08825733,0.0001529,53.2184,20.6685,87.3,272.8167,-0.00010865,-2.016e-05,0.0,0 STARLINK-3138,1 49430U 21104Y   23168.61581578 -.00002016  00000-0 -10865-3 0  9993,2 49430  53.2184  20.6685 0001529  87.3000 272.8167 15.08825733 89335,6917.924,95.438,540.847,538.731,0.0
49430.0,STARLINK-3138,PAYLOAD,2023-06-17 21:08:19,15.08827713,0.0001496,53.2185,19.4788,98.699,261.4171,-0.00013344,-2.41e-05,0.0,0 STARLINK-3138,1 49430U 21104Y   23168.88077607 -.00002410  00000-0 -13344-3 0  9998,2 49430  53.2185  19.4788 0001496  98.6990 261.4171 15.08827713 88307,6917.918,95.438,540.818,538.748,0.0
49430.0,STARLINK-3138,PAYLOAD,2023-06-18 06:40:37,15.08833385,0.0001216,53.2189,17.6962,104.8454,255.2673,-6.8549e-05,-1.378e-05,0.0,0 STARLINK-3138,1 49430U 21104Y   23169.27821537 -.00001378  00000-0 -68549-4 0  9991,2 49430  53.2189  17.6962 0001216 104.8454 255.2673 15.08833385 89435,6917.901,95.438,540.607,538.924,0.0
49430.0,STARLINK-3138,PAYLOAD,2023-06-18 16:12:56,15.08845064,0.0001122,53.2179,15.9116,102.4054,257.7064,0.00010281,1.349e-05,0.0,0 STARLINK-3138,1 49430U 21104Y   23169.67565176  .00001349  00000-0  10281-3 0  9994,2 49430  53.2179  15.9116 0001122 102.4054 257.7064 15.08845064 89496,6917.865,95.437,540.506,538.954,0.0
49430.0,STARLINK-3138,PAYLOAD,2023-06-18 20:59:05,15.0884751,0.0001112,53.2175,15.0198,107.8914,252.2199,0.00030165,4.517e-05,0.0,0 STARLINK-3138,1 49430U 21104Y   23169.87437176  .00004517  00000-0  30165-3 0  9997,2 49430  53.2175  15.0198 0001112 107.8914 252.2199 15.08847510 88458,6917.857,95.437,540.492,538.953,0.0
49430.0,STARLINK-3138,PAYLOAD,2023-06-19 06:31:24,15.08851785,9.51e-05,53.2175,13.235,103.1712,256.9387,0.00056959,8.792e-05,0.0,0 STARLINK-3138,1 49430U 21104Y   23170.27181339  .00008792  00000-0  56959-3 0  9998,2 49430  53.2175  13.2350 0000951 103.1712 256.9387 15.08851785 88519,6917.844,95.437,540.367,539.051,0.0
49430.0,STARLINK-3138,PAYLOAD,2023-06-19 16:03:43,15.08845323,0.000101,53.2177,11.4508,101.8429,258.2676,0.00017829,2.551e-05,0.0,0 STARLINK-3138,1 49430U 21104Y   23170.66925388  .00002551  00000-0  17829-3 0  9991,2 49430  53.2177  11.4508 0001010 101.8429 258.2676 15.08845323 89645,6917.864,95.437,540.428,539.03,0.0
49430.0,STARLINK-3138,PAYLOAD,2023-06-20 06:22:12,15.08839641,0.0002274,53.2175,8.7735,88.6768,271.4484,2.9239e-05,1.77e-06,0.0,0 STARLINK-3138,1 49430U 21104Y   23171.26541736  .00000177  00000-0  29239-4 0  9990,2 49430  53.2175   8.7735 0002274  88.6768 271.4484 15.08839641 89735,6917.881,95.438,541.32,538.173,0.0
49430.0,STARLINK-3138,PAYLOAD,2023-06-20 12:43:44,15.0884155,0.0001029,53.2175,7.5848,99.1322,260.9787,5.4284e-05,5.76e-06,0.0,0 STARLINK-3138,1 49430U 21104Y   23171.53037296  .00000576  00000-0  54284-4 0  9992,2 49430  53.2175   7.5848 0001029  99.1322 260.9787 15.08841550 88704,6917.876,95.437,540.453,539.029,0.0
49430.0,STARLINK-3138,PAYLOAD,2023-06-20 20:40:39,15.08847253,9.95e-05,53.2179,6.0985,97.7494,262.3611,0.0001017,1.331e-05,0.0,0 STARLINK-3138,1 49430U 21104Y   23171.86157084  .00001331  00000-0  10170-3 0  9991,2 49430  53.2179   6.0985 0000995  97.7494 262.3611 15.08847253 88752,6917.858,95.437,540.412,539.035,0.0
49430.0,STARLINK-3138,PAYLOAD,2023-06-20 22:16:02,15.08849655,9.77e-05,53.2179,5.8012,98.3938,261.7165,0.00015188,2.131e-05,0.0,0 STARLINK-3138,1 49430U 21104Y   23171.92780960  .00002131  00000-0  15188-3 0  9996,2 49430  53.2179   5.8012 0000977  98.3938 261.7165 15.08849655 89835,6917.851,95.437,540.392,539.04,0.0
49430.0,STARLINK-3138,PAYLOAD,2023-06-21 12:34:31,15.08841377,0.0001018,53.2178,3.1261,95.9072,264.2036,7.485e-05,9.04e-06,0.0,0 STARLINK-3138,1 49430U 21104Y   23172.52397313  .00000904  00000-0  74850-4 0  9997,2 49430  53.2178   3.1261 0001018  95.9072 264.2036 15.08841377 89928,6917.876,95.437,540.445,539.037,0.0
49430.0,STARLINK-3138,PAYLOAD,2023-06-21 18:56:03,15.08841994,9.59e-05,53.2176,1.936,94.9719,265.1382,0.00011478,1.54e-05,0.0,0 STARLINK-3138,1 49430U 21104Y   23172.78893329  .00001540  00000-0  11478-3 0  9996,2 49430  53.2176   1.9360 0000959  94.9719 265.1382 15.08841994 88896,6917.874,95.437,540.403,539.076,0.0
49430.0,STARLINK-3138,PAYLOAD,2023-06-22 18:46:51,15.08841427,8.54e-05,53.2176,357.4753,87.9405,272.1685,9.036e-05,1.151e-05,0.0,0 STARLINK-3138,1 49430U 21104Y   23173.78253632  .00001151  00000-0  90360-4 0  9990,2 49430  53.2176 357.4753 0000854  87.9405 272.1685 15.08841427 90112,6917.876,95.437,540.332,539.15,0.0
49430.0,STARLINK-3138,PAYLOAD,2023-06-24 16:53:02,15.08840095,0.0001083,53.218,348.85,99.0857,261.0257,0.00012004,1.623e-05,0.0,0 STARLINK-3138,1 49430U 21104Y   23175.70349850  .00001623  00000-0  12004-3 0  9994,2 49430  53.2180 348.8500 0001083  99.0857 261.0257 15.08840095 90405,6917.88,95.438,540.494,538.996,0.0
49430.0,STARLINK-3138,PAYLOAD,2023-06-25 21:29:58,15.08852115,9.69e-05,53.2178,343.4996,95.4649,264.6454,0.00016571,2.351e-05,0.0,0 STARLINK-3138,1 49430U 21104Y   23176.89581202  .00002351  00000-0  16571-3 0  9996,2 49430  53.2178 343.4996 0000969  95.4649 264.6454 15.08852115 90586,6917.843,95.437,540.379,539.038,0.0
49430.0,STARLINK-3138,PAYLOAD,2023-06-26 10:13:04,15.08834299,0.0001063,53.2175,341.12,105.3276,254.7833,5.458e-07,-2.79e-06,0.0,0 STARLINK-3138,1 49430U 21104Y   23177.42574322 -.00000279  00000-0  54580-6 0  9994,2 49430  53.2175 341.1200 0001063 105.3276 254.7833 15.08834299 90662,6917.898,95.438,540.498,539.027,0.0
49430.0,STARLINK-3138,PAYLOAD,2023-06-26 19:45:22,15.08844562,0.0001004,53.2174,339.3368,106.8192,253.291,0.0001866,2.684e-05,0.0,0 STARLINK-3138,1 49430U 21104Y   23177.82317912  .00002684  00000-0  18660-3 0  9995,2 49430  53.2174 339.3368 0001004 106.8192 253.2910 15.08844562 90724,6917.866,95.437,540.426,539.037,0.0
49430.0,STARLINK-3138,PAYLOAD,2023-06-27 10:03:51,15.08840303,9.84e-05,53.2173,336.6606,104.8425,255.2676,0.00013092,1.796e-05,0.0,0 STARLINK-3138,1 49430U 21104Y   23178.41934203  .00001796  00000-0  13092-3 0  9996,2 49430  53.2173 336.6606 0000984 104.8425 255.2676 15.08840303 90811,6917.879,95.438,540.425,539.064,0.0
49430.0,STARLINK-3138,PAYLOAD,2023-06-28 09:54:38,15.08836962,0.0001035,53.2166,332.2001,82.8036,277.3073,5.5556e-05,5.96e-06,0.0,0 STARLINK-3138,1 49430U 21104Y   23179.41294466  .00000596  00000-0  55556-4 0  9996,2 49430  53.2166 332.2001 0001035  82.8036 277.3073 15.08836962 90963,6917.89,95.438,540.471,539.039,0.0
49430.0,STARLINK-3138,PAYLOAD,2023-06-29 16:06:58,15.08845408,0.0001012,53.2171,326.5508,75.88,284.2305,0.00021959,3.209e-05,0.0,0 STARLINK-3138,1 49430U 21104Y   23180.67150463  .00003209  00000-0  21959-3 0  9997,2 49430  53.2171 326.5508 0001012  75.8800 284.2305 15.08845408 91155,6917.864,95.437,540.429,539.029,0.0
49430.0,STARLINK-3138,PAYLOAD,2023-06-30 15:57:44,15.08844883,9.69e-05,53.2177,322.0901,83.2916,276.8187,0.00016981,2.416e-05,0.0,0 STARLINK-3138,1 49430U 21104Y   23181.66510321  .00002416  00000-0  16981-3 0  9998,2 49430  53.2177 322.0901 0000969  83.2916 276.8187 15.08844883 91308,6917.865,95.437,540.401,539.06,0.0
49430.0,STARLINK-3138,PAYLOAD,2023-07-01 09:26:59,15.08837673,8.85e-05,53.218,318.8187,91.3981,268.7113,-3.8709e-05,-9.04e-06,0.0,0 STARLINK-3138,1 49430U 21104Y   23182.39374598 -.00000904  00000-0 -38709-4 0  9998,2 49430  53.2180 318.8187 0000885  91.3981 268.7113 15.08837673 91410,6917.888,95.438,540.365,539.14,0.0
49430.0,STARLINK-3138,PAYLOAD,2023-07-02 15:39:19,15.0884435,9.77e-05,53.2181,313.1696,89.1196,270.9908,0.00010612,1.402e-05,0.0,0 STARLINK-3138,1 49430U 21104Y   23183.65230376  .00001402  00000-0  10612-3 0  9997,2 49430  53.2181 313.1696 0000977  89.1196 270.9908 15.08844350 91607,6917.867,95.437,540.408,539.056,0.0
49430.0,STARLINK-3138,PAYLOAD,2023-07-03 09:08:33,15.0883654,0.000104,53.219,309.8999,98.8398,261.2712,6.6512e-05,7.71e-06,0.0,0 STARLINK-3138,1 49430U 21104Y   23184.38094775  .00000771  00000-0  66512-4 0  9998,2 49430  53.2190 309.8999 0001040  98.8398 261.2712 15.08836540 91718,6917.891,95.438,540.475,539.037,0.0
